ORBCOMM FM33 [-]        
1 25983U 99065D   24091.85607856  .00001570  00000+0  56660-3 0  9995
2 25983  45.0286 297.7681 0008340 358.1355  17.2114 14.37480982272361
ORBCOMM FM36 [-]        
1 25984U 99065E   24092.18207617  .00001796  00000+0  66919-3 0  9992
2 25984  45.0410  21.0478 0003606 258.2589 101.7854 14.35357120271445
ORBCOMM FM35 [+]        
1 25985U 99065F   24092.07375542  .00001626  00000+0  61514-3 0  9992
2 25985  45.0410  24.0857 0004346 339.1040  20.9630 14.34976276271423
ORBCOMM FM34 [-]        
1 25986U 99065G   24092.53055811  .00001539  00000+0  58546-3 0  9992
2 25986  45.0405  22.4582 0004664 299.2416  60.7965 14.34938794271450
ORBCOMM FM38 [-]        
1 33060U 08031A   24092.13592146  .00002964  00000+0  44274-3 0  9996
2 33060  48.4395 255.2460 0005846 299.7273  60.3059 14.77227235849298
ORBCOMM FM41 [-]        
1 33061U 08031B   24092.52027110  .00002876  00000+0  43301-3 0  9996
2 33061  48.4433 259.9556 0005099 287.1930 113.4731 14.76963293849309
ORBCOMM FM29 [-]        
1 33062U 08031C   24091.91908986  .00002982  00000+0  44872-3 0  9990
2 33062  48.4388 270.8325 0006908 284.7440 229.0159 14.76878905848687
ORBCOMM FM39 [-]        
1 33063U 08031D   24092.23562257  .00002258  00000+0  35456-3 0  9998
2 33063  48.4403 289.5614 0007866 263.7626  96.2391 14.75923652848851
